[
    {
        "Altitude(m)": 703940.1211149622,
        "Argument of Periapsis(deg)": 0.004556048474650827,
        "Eccentricity": 0.0,
        "Inclination(deg)": 45.0,
        "Latitude(deg)": -3.34315283230739,
        "Longitude(deg)": -21.960316417098603,
        "Mean Anomaly(deg)": -175.38671334100766,
        "RAAN(deg)": 254.99569922341675,
        "Satellite Name": "Constellation 1 1133",
        "Satellite Number": 1133,
        "Semi-Major Axis(m)": 7083131.272910544,
        "Time(s)": 76
    },
    {
        "Altitude(m)": 703947.3085047132,
        "Argument of Periapsis(deg)": 0.004615996480896233,
        "Eccentricity": 0.0,
        "Inclination(deg)": 45.0,
        "Latitude(deg)": -3.38628726402632,
        "Longitude(deg)": -21.92142618529239,
        "Mean Anomaly(deg)": -175.32601220075782,
        "RAAN(deg)": 254.9956426342512,
        "Satellite Name": "Constellation 1 1133",
        "Satellite Number": 1133,
        "Semi-Major Axis(m)": 7083131.272910544,
        "Time(s)": 77
    },
    {
        "Altitude(m)": 703954.515745693,
        "Argument of Periapsis(deg)": 0.004675944487141638,
        "Eccentricity": 0.0,
        "Inclination(deg)": 45.0,
        "Latitude(deg)": -3.4294196653713596,
        "Longitude(deg)": -21.882532227068896,
        "Mean Anomaly(deg)": -175.26531106050783,
        "RAAN(deg)": 254.99558604508556,
        "Satellite Name": "Constellation 1 1133",
        "Satellite Number": 1133,
        "Semi-Major Axis(m)": 7083131.272910544,
        "Time(s)": 78
    },
    {
        "Altitude(m)": 703961.7428241696,
        "Argument of Periapsis(deg)": 0.004735892493387044,
        "Eccentricity": 0.0,
        "Inclination(deg)": 45.0,
        "Latitude(deg)": -3.472550011148348,
        "Longitude(deg)": -21.843634493825032,
        "Mean Anomaly(deg)": -175.20460992025795,
        "RAAN(deg)": 254.99552945592,
        "Satellite Name": "Constellation 1 1133",
        "Satellite Number": 1133,
        "Semi-Major Axis(m)": 7083131.272910544,
        "Time(s)": 79
    },
    {
        "Altitude(m)": 703968.9897263208,
        "Argument of Periapsis(deg)": 0.004795840499632449,
        "Eccentricity": 0.0,
        "Inclination(deg)": 45.0,
        "Latitude(deg)": -3.5156782761566068,
        "Longitude(deg)": -21.80473293694936,
        "Mean Anomaly(deg)": -175.14390878000808,
        "RAAN(deg)": 254.99547286675445,
        "Satellite Name": "Constellation 1 1133",
        "Satellite Number": 1133,
        "Semi-Major Axis(m)": 7083131.272910544,
        "Time(s)": 80
    },
    {
        "Altitude(m)": 703976.2564382374,
        "Argument of Periapsis(deg)": 0.004855788505877855,
        "Eccentricity": 0.0,
        "Inclination(deg)": 45.0,
        "Latitude(deg)": -3.5588044351882266,
        "Longitude(deg)": -21.76582750782225,
        "Mean Anomaly(deg)": -175.08320763975814,
        "RAAN(deg)": 254.9954162775889,
        "Satellite Name": "Constellation 1 1133",
        "Satellite Number": 1133,
        "Semi-Major Axis(m)": 7083131.272910544,
        "Time(s)": 81
    },
    {
        "Altitude(m)": 703983.5429459196,
        "Argument of Periapsis(deg)": 0.00491573651212326,
        "Eccentricity": 0.0,
        "Inclination(deg)": 45.0,
        "Latitude(deg)": -3.6019284630285844,
        "Longitude(deg)": -21.726918325912674,
        "Mean Anomaly(deg)": -175.0225064995083,
        "RAAN(deg)": 254.99535968842335,
        "Satellite Name": "Constellation 1 1133",
        "Satellite Number": 1133,
        "Semi-Major Axis(m)": 7083131.272910544,
        "Time(s)": 82
    },
    {
        "Altitude(m)": 703990.8492352653,
        "Argument of Periapsis(deg)": 0.004975684518368666,
        "Eccentricity": 0.0,
        "Inclination(deg)": 45.0,
        "Latitude(deg)": -3.6450503344549383,
        "Longitude(deg)": -21.688005006390274,
        "Mean Anomaly(deg)": -174.9618053592584,
        "RAAN(deg)": 254.9953030992577,
        "Satellite Name": "Constellation 1 1133",
        "Satellite Number": 1133,
        "Semi-Major Axis(m)": 7083131.272910544,
        "Time(s)": 83
    },
    {
        "Altitude(m)": 703998.1752920912,
        "Argument of Periapsis(deg)": 0.005035632524614072,
        "Eccentricity": 0.0,
        "Inclination(deg)": 45.0,
        "Latitude(deg)": -3.6881700242382225,
        "Longitude(deg)": -21.649087668706823,
        "Mean Anomaly(deg)": -174.90110421900846,
        "RAAN(deg)": 254.99524651009216,
        "Satellite Name": "Constellation 1 1133",
        "Satellite Number": 1133,
        "Semi-Major Axis(m)": 7083131.272910544,
        "Time(s)": 84
    },
    {
        "Altitude(m)": 704005.5211021261,
        "Argument of Periapsis(deg)": 0.0050955805308594785,
        "Eccentricity": 0.0,
        "Inclination(deg)": 45.0,
        "Latitude(deg)": -3.7312875071415115,
        "Longitude(deg)": -21.61016626420882,
        "Mean Anomaly(deg)": -174.8404030787586,
        "RAAN(deg)": 254.9951899209266,
        "Satellite Name": "Constellation 1 1133",
        "Satellite Number": 1133,
        "Semi-Major Axis(m)": 7083131.272910544,
        "Time(s)": 85
    },
    {
        "Altitude(m)": 704012.8866509919,
        "Argument of Periapsis(deg)": 0.005155528537104883,
        "Eccentricity": 0.0,
        "Inclination(deg)": 45.0,
        "Latitude(deg)": -3.7744027579206496,
        "Longitude(deg)": -21.571240744233695,
        "Mean Anomaly(deg)": -174.77970193850865,
        "RAAN(deg)": 254.99513333176105,
        "Satellite Name": "Constellation 1 1133",
        "Satellite Number": 1133,
        "Semi-Major Axis(m)": 7083131.272910544,
        "Time(s)": 86
    },
    {
        "Altitude(m)": 704020.2719242345,
        "Argument of Periapsis(deg)": 0.0052154765433502885,
        "Eccentricity": 0.0,
        "Inclination(deg)": 45.0,
        "Latitude(deg)": -3.817515751323777,
        "Longitude(deg)": -21.53231106011013,
        "Mean Anomaly(deg)": -174.7190007982588,
        "RAAN(deg)": 254.9950767425955,
        "Satellite Name": "Constellation 1 1133",
        "Satellite Number": 1133,
        "Semi-Major Axis(m)": 7083131.272910544,
        "Time(s)": 87
    },
    {
        "Altitude(m)": 704027.6769073018,
        "Argument of Periapsis(deg)": 0.005275424549595694,
        "Eccentricity": 0.0,
        "Inclination(deg)": 45.0,
        "Latitude(deg)": -3.8606264620913864,
        "Longitude(deg)": -21.493377163157813,
        "Mean Anomaly(deg)": -174.6582996580089,
        "RAAN(deg)": 254.99502015342986,
        "Satellite Name": "Constellation 1 1133",
        "Satellite Number": 1133,
        "Semi-Major Axis(m)": 7083131.272910544,
        "Time(s)": 88
    },
    {
        "Altitude(m)": 704035.1015855512,
        "Argument of Periapsis(deg)": 0.0053353725558411,
        "Eccentricity": 0.0,
        "Inclination(deg)": 45.0,
        "Latitude(deg)": -3.9037348649566868,
        "Longitude(deg)": -21.45443917278426,
        "Mean Anomaly(deg)": -174.59759851775894,
        "RAAN(deg)": 254.9949635642643,
        "Satellite Name": "Constellation 1 1133",
        "Satellite Number": 1133,
        "Semi-Major Axis(m)": 7083131.272910544,
        "Time(s)": 89
    },
    {
        "Altitude(m)": 704042.545944248,
        "Argument of Periapsis(deg)": 0.005395320562086505,
        "Eccentricity": 0.0,
        "Inclination(deg)": 45.0,
        "Latitude(deg)": -3.9468409346437916,
        "Longitude(deg)": -21.415496704097002,
        "Mean Anomaly(deg)": -174.5368973775091,
        "RAAN(deg)": 254.99490697509876,
        "Satellite Name": "Constellation 1 1133",
        "Satellite Number": 1133,
        "Semi-Major Axis(m)": 7083131.272910544,
        "Time(s)": 90
    },
    {
        "Altitude(m)": 704050.0099685686,
        "Argument of Periapsis(deg)": 0.00545526856833191,
        "Eccentricity": 0.0,
        "Inclination(deg)": 45.0,
        "Latitude(deg)": -3.98994464587025,
        "Longitude(deg)": -21.37654987648483,
        "Mean Anomaly(deg)": -174.47619623725922,
        "RAAN(deg)": 254.9948503859332,
        "Satellite Name": "Constellation 1 1133",
        "Satellite Number": 1133,
        "Semi-Major Axis(m)": 7083131.272910544,
        "Time(s)": 91
    },
    {
        "Altitude(m)": 704057.493643594,
        "Argument of Periapsis(deg)": 0.005515216574577317,
        "Eccentricity": 0.0,
        "Inclination(deg)": 45.0,
        "Latitude(deg)": -4.033045973344984,
        "Longitude(deg)": -21.33759864123056,
        "Mean Anomaly(deg)": -174.41549509700928,
        "RAAN(deg)": 254.99479379676765,
        "Satellite Name": "Constellation 1 1133",
        "Satellite Number": 1133,
        "Semi-Major Axis(m)": 7083131.272910544,
        "Time(s)": 92
    },
    {
        "Altitude(m)": 704064.9969543242,
        "Argument of Periapsis(deg)": 0.005575164580822722,
        "Eccentricity": 0.0,
        "Inclination(deg)": 45.0,
        "Latitude(deg)": -4.0761448917689025,
        "Longitude(deg)": -21.298642949607387,
        "Mean Anomaly(deg)": -174.35479395675938,
        "RAAN(deg)": 254.99473720760207,
        "Satellite Name": "Constellation 1 1133",
        "Satellite Number": 1133,
        "Semi-Major Axis(m)": 7083131.272910544,
        "Time(s)": 93
    },
    {
        "Altitude(m)": 704072.5198856585,
        "Argument of Periapsis(deg)": 0.005635112587068129,
        "Eccentricity": 0.0,
        "Inclination(deg)": 45.0,
        "Latitude(deg)": -4.119241375834609,
        "Longitude(deg)": -21.259682752878923,
        "Mean Anomaly(deg)": -174.2940928165095,
        "RAAN(deg)": 254.99468061843646,
        "Satellite Name": "Constellation 1 1133",
        "Satellite Number": 1133,
        "Semi-Major Axis(m)": 7083131.272910544,
        "Time(s)": 94
    }
]